{
    "links": {
        "self": "http://www.neowsapp.com/rest/v1/neo/3670099?api_key=iIulBulltgU6a56xZRHN4H3l9WmuAYTsLGpBGhQ2"
    },
    "id": "3670099",
    "neo_reference_id": "3670099",
    "name": "(2014 HE177)",
    "designation": "2014 HE177",
    "nasa_jpl_url": "http://ssd.jpl.nasa.gov/sbdb.cgi?sstr=3670099",
    "absolute_magnitude_h": 25.8,
    "estimated_diameter": {
        "kilometers": {
            "estimated_diameter_min": 0.0183888672,
            "estimated_diameter_max": 0.0411187571
        },
        "meters": {
            "estimated_diameter_min": 18.388867207,
            "estimated_diameter_max": 41.1187571041
        },
        "miles": {
            "estimated_diameter_min": 0.0114263088,
            "estimated_diameter_max": 0.0255500032
        },
        "feet": {
            "estimated_diameter_min": 60.3309310875,
            "estimated_diameter_max": 134.9040630575
        }
    },
    "is_potentially_hazardous_asteroid": false,
    "close_approach_data": [
        {
            "close_approach_date": "2014-05-08",
            "close_approach_date_full": "2014-May-08 04:59",
            "epoch_date_close_approach": 1399525140000,
            "relative_velocity": {
                "kilometers_per_second": "5.9376332424",
                "kilometers_per_hour": "21375.4796727677",
                "miles_per_hour": "13281.8918000039"
            },
            "miss_distance": {
                "astronomical": "0.0490300368",
                "lunar": "19.0726843152",
                "kilometers": "7334789.071301616",
                "miles": "4557626.5889536608"
            },
            "orbiting_body": "Earth"
        }
    ],
    "orbital_data": {
        "orbit_id": "9",
        "orbit_determination_date": "2017-04-06 08:41:16",
        "first_observation_date": "2014-04-29",
        "last_observation_date": "2014-05-20",
        "data_arc_in_days": 21,
        "observations_used": 26,
        "orbit_uncertainty": "8",
        "minimum_orbit_intersection": ".0478795",
        "jupiter_tisserand_invariant": "3.719",
        "epoch_osculation": "2456780.5",
        "eccentricity": ".4663559483654272",
        "semi_major_axis": "1.978695157104284",
        "inclination": "3.553300428823147",
        "ascending_node_longitude": "219.0298281493402",
        "orbital_period": "1016.63899333226",
        "perihelion_distance": "1.055918900586838",
        "perihelion_argument": "3.987941881929455",
        "aphelion_distance": "2.901471413621731",
        "perihelion_time": "2456782.197968818735",
        "mean_anomaly": "359.3987356586225",
        "mean_motion": ".354107999359753",
        "equinox": "J2000",
        "orbit_class": {
            "orbit_class_type": "AMO",
            "orbit_class_description": "Near-Earth asteroid orbits similar to that of 1221 Amor",
            "orbit_class_range": "1.017 AU < q (perihelion) < 1.3 AU"
        }
    },
    "is_sentry_object": false
}